<?xml version="1.0" encoding="UTF-8"?>
<kml xmlns="http://www.opengis.net/kml/2.2"
xmlns:gx="http://www.google.com/kml/ext/2.2">
<Document><name>Domain.kml</name>

<Style id="Path">
<LineStyle><color>FF0000FF</color><width>2</width></LineStyle>
<PolyStyle><color>00000000</color></PolyStyle>
</Style>
<Placemark><name>Computational Domain</name>
<description>  x1 = -92., x2 = -90.
  y1 = -2., y2 = 0.
Level 1 resolution:  dy = 0 deg, 3 min, 0 sec = 5550 meters
Level 2 resolution:  dy = 0 deg, 1 min, 30 sec = 2775 meters  (refined by 2)
Level 3 resolution:  dy = 0 deg, 0 min, 22.5 sec = 693.75 meters  (refined by 4)
Level 4 resolution:  dy = 0 deg, 0 min, 5.625 sec = 173.438 meters  (refined by 4)
Level 5 resolution:  dy = 0 deg, 0 min, 1.40625 sec = 43.3594 meters  (refined by 4)
Level 6 resolution:  dy = 0 deg, 0 min, 0.703125 sec = 21.6797 meters  (refined by 2)
</description>
<styleUrl>#Path</styleUrl>
<Polygon>
<tessellate>1</tessellate>
<altitudeMode>clampToGround</altitudeMode>
<outerBoundaryIs><LinearRing><coordinates>

-92.000000000,-2.000000000,0.000000000
-90.000000000,-2.000000000,0.000000000
-90.000000000,0.000000000,0.000000000
-92.000000000,0.000000000,0.000000000
-92.000000000,-2.000000000,0.000000000

</coordinates></LinearRing></outerBoundaryIs>
</Polygon>
</Placemark>

</Document>
</kml>
