<?xml version="1.0" encoding="UTF-8"?>
<kml xmlns="http://www.opengis.net/kml/2.2"
xmlns:gx="http://www.google.com/kml/ext/2.2">
<Document><name>etopo10min120W60W60S0S.kml</name>

<Style id="Path">
<LineStyle><color>FF00FF00</color><width>3</width></LineStyle>
<PolyStyle><color>00000000</color></PolyStyle>
</Style>
<Placemark><name>etopo10min120W60W60S0S</name>
<description>  x1 = -120., x2 = -60.
  y1 = -60., y2 = 0.</description>
<styleUrl>#Path</styleUrl>
<Polygon>
<tessellate>1</tessellate>
<altitudeMode>clampToGround</altitudeMode>
<outerBoundaryIs><LinearRing><coordinates>

-120.000000000,-60.000000000,0.000000000
-60.000000000,-60.000000000,0.000000000
-60.000000000,0.000000000,0.000000000
-120.000000000,0.000000000,0.000000000
-120.000000000,-60.000000000,0.000000000

</coordinates></LinearRing></outerBoundaryIs>
</Polygon>
</Placemark>

</Document>
</kml>
