<?xml version="1.0" encoding="UTF-8"?>
<kml xmlns="http://www.opengis.net/kml/2.2"
xmlns:gx="http://www.google.com/kml/ext/2.2">
<Document><name>RR_initial_conditions.kml</name>

<Style id="Path">
<LineStyle><color>FF00FFFF</color><width>2</width></LineStyle>
<PolyStyle><color>00000000</color></PolyStyle>
</Style>
<Placemark><name>RR_initial_conditions</name>
<description>minlevel = 3, maxlevel = 3
  t1 = 0., t2 = 100.
  Bounding box: 
  x1_bb = -90.083333, x2_bb = -80.083333
  y1_bb = -15.083333, y2_bb = -5.083333

Level 3 resolution:  
dy = 0 deg, 0 min, 22.5 sec 
= 693.75 meters
</description>
<styleUrl>#Path</styleUrl>
<Polygon>
<tessellate>1</tessellate>
<altitudeMode>clampToGround</altitudeMode>
<outerBoundaryIs><LinearRing><coordinates>

-90.083333,-15.083333,0.
-90.083333,-14.916667,0.
-90.083333,-14.916667,0.
-90.083333,-14.75,0.
-90.083333,-14.75,0.
-90.083333,-14.583333,0.
-90.083333,-14.583333,0.
-90.083333,-14.416667,0.
-90.083333,-14.416667,0.
-90.083333,-14.25,0.
-90.083333,-14.25,0.
-90.083333,-14.083333,0.
-90.083333,-14.083333,0.
-90.083333,-13.916667,0.
-90.083333,-13.916667,0.
-90.083333,-13.75,0.
-90.083333,-13.75,0.
-90.083333,-13.583333,0.
-90.083333,-13.583333,0.
-90.083333,-13.416667,0.
-90.083333,-13.416667,0.
-90.083333,-13.25,0.
-90.083333,-13.25,0.
-90.083333,-13.083333,0.
-90.083333,-13.083333,0.
-90.083333,-12.916667,0.
-90.083333,-12.916667,0.
-90.083333,-12.75,0.
-90.083333,-12.75,0.
-90.083333,-12.583333,0.
-90.083333,-12.583333,0.
-90.083333,-12.416667,0.
-90.083333,-12.416667,0.
-90.083333,-12.25,0.
-90.083333,-12.25,0.
-90.083333,-12.083333,0.
-90.083333,-12.083333,0.
-90.083333,-11.916667,0.
-90.083333,-11.916667,0.
-90.083333,-11.75,0.
-90.083333,-11.75,0.
-90.083333,-11.583333,0.
-90.083333,-11.583333,0.
-90.083333,-11.416667,0.
-90.083333,-11.416667,0.
-90.083333,-11.25,0.
-90.083333,-11.25,0.
-90.083333,-11.083333,0.
-90.083333,-11.083333,0.
-90.083333,-10.916667,0.
-90.083333,-10.916667,0.
-90.083333,-10.75,0.
-90.083333,-10.75,0.
-90.083333,-10.583333,0.
-90.083333,-10.583333,0.
-90.083333,-10.416667,0.
-90.083333,-10.416667,0.
-90.083333,-10.25,0.
-90.083333,-10.25,0.
-90.083333,-10.083333,0.
-90.083333,-10.083333,0.
-90.083333,-9.916667,0.
-90.083333,-9.916667,0.
-90.083333,-9.75,0.
-90.083333,-9.75,0.
-90.083333,-9.583333,0.
-90.083333,-9.583333,0.
-90.083333,-9.416667,0.
-90.083333,-9.416667,0.
-90.083333,-9.25,0.
-90.083333,-9.25,0.
-90.083333,-9.083333,0.
-90.083333,-9.083333,0.
-90.083333,-8.916667,0.
-90.083333,-8.916667,0.
-90.083333,-8.75,0.
-90.083333,-8.75,0.
-90.083333,-8.583333,0.
-90.083333,-8.583333,0.
-90.083333,-8.416667,0.
-90.083333,-8.416667,0.
-90.083333,-8.25,0.
-90.083333,-8.25,0.
-90.083333,-8.083333,0.
-90.083333,-8.083333,0.
-90.083333,-7.916667,0.
-90.083333,-7.916667,0.
-90.083333,-7.75,0.
-90.083333,-7.75,0.
-90.083333,-7.583333,0.
-90.083333,-7.583333,0.
-90.083333,-7.416667,0.
-90.083333,-7.416667,0.
-90.083333,-7.25,0.
-90.083333,-7.25,0.
-90.083333,-7.083333,0.
-90.083333,-7.083333,0.
-90.083333,-6.916667,0.
-90.083333,-6.916667,0.
-90.083333,-6.75,0.
-90.083333,-6.75,0.
-90.083333,-6.583333,0.
-90.083333,-6.583333,0.
-90.083333,-6.416667,0.
-90.083333,-6.416667,0.
-90.083333,-6.25,0.
-90.083333,-6.25,0.
-90.083333,-6.083333,0.
-90.083333,-6.083333,0.
-90.083333,-5.916667,0.
-90.083333,-5.916667,0.
-90.083333,-5.75,0.
-90.083333,-5.75,0.
-90.083333,-5.583333,0.
-90.083333,-5.583333,0.
-90.083333,-5.416667,0.
-90.083333,-5.416667,0.
-90.083333,-5.25,0.
-90.083333,-5.25,0.
-90.083333,-5.083333,0.
-80.083333,-5.083333,0.
-80.083333,-5.25,0.
-80.083333,-5.25,0.
-80.083333,-5.416667,0.
-80.083333,-5.416667,0.
-80.083333,-5.583333,0.
-80.083333,-5.583333,0.
-80.083333,-5.75,0.
-80.083333,-5.75,0.
-80.083333,-5.916667,0.
-80.083333,-5.916667,0.
-80.083333,-6.083333,0.
-80.083333,-6.083333,0.
-80.083333,-6.25,0.
-80.083333,-6.25,0.
-80.083333,-6.416667,0.
-80.083333,-6.416667,0.
-80.083333,-6.583333,0.
-80.083333,-6.583333,0.
-80.083333,-6.75,0.
-80.083333,-6.75,0.
-80.083333,-6.916667,0.
-80.083333,-6.916667,0.
-80.083333,-7.083333,0.
-80.083333,-7.083333,0.
-80.083333,-7.25,0.
-80.083333,-7.25,0.
-80.083333,-7.416667,0.
-80.083333,-7.416667,0.
-80.083333,-7.583333,0.
-80.083333,-7.583333,0.
-80.083333,-7.75,0.
-80.083333,-7.75,0.
-80.083333,-7.916667,0.
-80.083333,-7.916667,0.
-80.083333,-8.083333,0.
-80.083333,-8.083333,0.
-80.083333,-8.25,0.
-80.083333,-8.25,0.
-80.083333,-8.416667,0.
-80.083333,-8.416667,0.
-80.083333,-8.583333,0.
-80.083333,-8.583333,0.
-80.083333,-8.75,0.
-80.083333,-8.75,0.
-80.083333,-8.916667,0.
-80.083333,-8.916667,0.
-80.083333,-9.083333,0.
-80.083333,-9.083333,0.
-80.083333,-9.25,0.
-80.083333,-9.25,0.
-80.083333,-9.416667,0.
-80.083333,-9.416667,0.
-80.083333,-9.583333,0.
-80.083333,-9.583333,0.
-80.083333,-9.75,0.
-80.083333,-9.75,0.
-80.083333,-9.916667,0.
-80.083333,-9.916667,0.
-80.083333,-10.083333,0.
-80.083333,-10.083333,0.
-80.083333,-10.25,0.
-80.083333,-10.25,0.
-80.083333,-10.416667,0.
-80.083333,-10.416667,0.
-80.083333,-10.583333,0.
-80.083333,-10.583333,0.
-80.083333,-10.75,0.
-80.083333,-10.75,0.
-80.083333,-10.916667,0.
-80.083333,-10.916667,0.
-80.083333,-11.083333,0.
-80.083333,-11.083333,0.
-80.083333,-11.25,0.
-80.083333,-11.25,0.
-80.083333,-11.416667,0.
-80.083333,-11.416667,0.
-80.083333,-11.583333,0.
-80.083333,-11.583333,0.
-80.083333,-11.75,0.
-80.083333,-11.75,0.
-80.083333,-11.916667,0.
-80.083333,-11.916667,0.
-80.083333,-12.083333,0.
-80.083333,-12.083333,0.
-80.083333,-12.25,0.
-80.083333,-12.25,0.
-80.083333,-12.416667,0.
-80.083333,-12.416667,0.
-80.083333,-12.583333,0.
-80.083333,-12.583333,0.
-80.083333,-12.75,0.
-80.083333,-12.75,0.
-80.083333,-12.916667,0.
-80.083333,-12.916667,0.
-80.083333,-13.083333,0.
-80.083333,-13.083333,0.
-80.083333,-13.25,0.
-80.083333,-13.25,0.
-80.083333,-13.416667,0.
-80.083333,-13.416667,0.
-80.083333,-13.583333,0.
-80.083333,-13.583333,0.
-80.083333,-13.75,0.
-80.083333,-13.75,0.
-80.083333,-13.916667,0.
-80.083333,-13.916667,0.
-80.083333,-14.083333,0.
-80.083333,-14.083333,0.
-80.083333,-14.25,0.
-80.083333,-14.25,0.
-80.083333,-14.416667,0.
-80.083333,-14.416667,0.
-80.083333,-14.583333,0.
-80.083333,-14.583333,0.
-80.083333,-14.75,0.
-80.083333,-14.75,0.
-80.083333,-14.916667,0.
-80.083333,-14.916667,0.
-80.083333,-15.083333,0.
-90.083333,-15.083333,0.
-90.083333,-15.083333,0.

</coordinates></LinearRing></outerBoundaryIs>
</Polygon>
</Placemark>

</Document>
</kml>
